NORAD_CAT_ID,OBJECT_NAME,OBJECT_TYPE,EPOCH,MEAN_MOTION,ECCENTRICITY,INCLINATION,RA_OF_ASC_NODE,ARG_OF_PERICENTER,MEAN_ANOMALY,BSTAR,MEAN_MOTION_DOT,MEAN_MOTION_DDOT,TLE_LINE0,TLE_LINE1,TLE_LINE2,SEMIMAJOR_AXIS,PERIOD,APOGEE,PERIGEE,DECAYED
52549.0,STARLINK-3935,PAYLOAD,2022-07-06 14:00:01,15.21163671,0.0001647,53.2177,34.3943,51.7384,110.276,-0.034362,-0.00722732,0.0,0 STARLINK-3935,1 52549U 22051S   22187.58334491 -.00722732  00000-0 -34362-1 0  9996,2 52549  53.2177  34.3943 0001647  51.7384 110.2760 15.21163671  1308,6880.465999999999,94.664,503.465,501.198,0.0
52549.0,STARLINK-3935,PAYLOAD,2022-07-06 16:00:00,15.210356099999998,0.0001573,53.2177,34.0138,53.2246,205.3703,-0.034457,-0.00722042,0.0,0 STARLINK-3935,1 52549U 22051S   22187.66667824 -.00722042  00000-0 -34457-1 0  9993,2 52549  53.2177  34.0138 0001573  53.2246 205.3703 15.21035610  8911,6880.853,94.672,503.8,501.635,0.0
52549.0,STARLINK-3935,PAYLOAD,2022-07-06 19:36:31,15.22182078,9.6e-05,53.2184,33.318000000000005,130.4394,229.6687,-0.01009,-0.00227741,0.0,0 STARLINK-3935,1 52549U 22051S   22187.81702717 -.00227741  00000-0 -10090-1 0  9994,2 52549  53.2184  33.3180 0000960 130.4394 229.6687 15.22182078  8933,6877.397,94.601,499.922,498.602,0.0
52549.0,STARLINK-3935,PAYLOAD,2022-07-07 06:00:02,15.20145033,0.0001509,53.2175,31.3483,59.5295,154.1201,-0.035557,-0.0072559,0.0,0 STARLINK-3935,1 52549U 22051S   22188.25002315 -.00725590  00000-0 -35557-1 0  9990,2 52549  53.2175  31.3483 0001509  59.5295 154.1201 15.20145033  8996,6883.54,94.728,506.443,504.366,0.0
52549.0,STARLINK-3935,PAYLOAD,2022-07-07 14:00:01,15.19633662,0.0001597,53.2176,29.8264,54.0784,184.3751,-0.035917,-0.00722298,0.0,0 STARLINK-3935,1 52549U 22051S   22188.58334491 -.00722298  00000-0 -35917-1 0  9991,2 52549  53.2176  29.8264 0001597  54.0784 184.3751 15.19633662  1307,6885.084,94.76,508.048,505.849,0.0
52549.0,STARLINK-3935,PAYLOAD,2022-07-07 20:51:30,15.20536498,0.0004649,53.2173,28.5157,13.4346,346.6774,-0.010508,-0.00226127,0.0,0 STARLINK-3935,1 52549U 22051S   22188.86910650 -.00226127  00000-0 -10508-1 0  9998,2 52549  53.2173  28.5157 0004649  13.4346 346.6774 15.20536498  9021,6882.358,94.703,507.423,501.024,0.0
52549.0,STARLINK-3935,PAYLOAD,2022-07-08 04:45:11,15.20121928,0.0001139,53.217,27.0164,56.4338,303.6767,-0.010495,-0.00223115,0.0,0 STARLINK-3935,1 52549U 22051S   22189.19804645 -.00223115  00000-0 -10495-1 0  9990,2 52549  53.2170  27.0164 0001139  56.4338 303.6767 15.20121928  9145,6883.61,94.729,506.259,504.69,0.0
52549.0,STARLINK-3935,PAYLOAD,2022-07-08 07:54:48,15.198601000000002,0.0002749,53.2156,26.4187,31.6322,328.4840000000001,-0.010767,-0.00227067,0.0,0 STARLINK-3935,1 52549U 22051S   22189.32972233 -.00227067  00000-0 -10767-1 0  9996,2 52549  53.2156  26.4187 0002749  31.6322 328.4840 15.19860100  9162,6884.4,94.746,508.158,504.37300000000016,0.0
52549.0,STARLINK-3935,PAYLOAD,2022-07-08 14:00:01,15.18103509,0.0001541999999999,53.2177,25.2691,51.3889,257.9888,-0.037527,-0.0072185,0.0,0 STARLINK-3935,1 52549U 22051S   22189.58334491 -.00721850  00000-0 -37527-1 0  9994,2 52549  53.2177  25.2691 0001542  51.3889 257.9888 15.18103509  9204,6889.71,94.855,512.637,510.512,0.0
52549.0,STARLINK-3935,PAYLOAD,2022-07-08 22:00:01,15.17593769,0.0001617,53.2176,23.7542,46.7305,285.1252,-0.038131,-0.00722685,0.0,0 STARLINK-3935,1 52549U 22051S   22189.91668981 -.00722685  00000-0 -38131-1 0  9994,2 52549  53.2176  23.7542 0001617  46.7305 285.1252 15.17593769  1306,6891.252,94.887,514.232,512.003,0.0
52549.0,STARLINK-3935,PAYLOAD,2022-07-09 14:00:01,15.16573507,0.0001421,53.2177,20.7227,56.0984,318.6883,-0.039226,-0.00721946,0.0,0 STARLINK-3935,1 52549U 22051S   22190.58334491 -.00721946  00000-0 -39226-1 0  9990,2 52549  53.2177  20.7227 0001421  56.0984 318.6883 15.16573507  1303,6894.343000000003,94.951,517.187,515.2280000000002,0.0
52549.0,STARLINK-3935,PAYLOAD,2022-07-09 16:00:00,15.1644658,0.0001561,53.2176,20.3449,53.5087,56.4795,-0.039471,-0.00723703,0.0,0 STARLINK-3935,1 52549U 22051S   22190.66667824 -.00723703  00000-0 -39471-1 0  9993,2 52549  53.2176  20.3449 0001561  53.5087  56.4795 15.16446580  9368,6894.727,94.959,517.669,515.516,0.0
52549.0,STARLINK-3935,PAYLOAD,2022-07-09 20:00:01,15.16190752,0.0001545,53.2175,19.5892,54.1896,246.0869,-0.039656,-0.00721909,0.0,0 STARLINK-3935,1 52549U 22051S   22190.83334491 -.00721909  00000-0 -39656-1 0  9994,2 52549  53.2175  19.5892 0001545  54.1896 246.0869 15.16190752  1308,6895.503000000002,94.975,518.433,516.303,0.0
52549.0,STARLINK-3935,PAYLOAD,2022-07-10 14:00:01,15.15043408,0.0001655,53.2175,16.1869,45.8202,28.8605,-0.040986,-0.00722071,0.0,0 STARLINK-3935,1 52549U 22051S   22191.58334491 -.00722071  00000-0 -40986-1 0  9996,2 52549  53.2175  16.1869 0001655  45.8202  28.8605 15.15043408  1303,6898.984,95.047,521.991,519.707,0.0
52549.0,STARLINK-3935,PAYLOAD,2022-07-10 22:00:00,15.14532298,0.0001612,53.2176,14.679,49.7318,43.6876,-0.041491,-0.0072053,0.0,0 STARLINK-3935,1 52549U 22051S   22191.91667824 -.00720530  00000-0 -41491-1 0  9992,2 52549  53.2176  14.6790 0001612  49.7318  43.6876 15.14532298  9553,6900.536,95.079,523.513,521.288,0.0
52549.0,STARLINK-3935,PAYLOAD,2022-07-11 14:00:01,15.13513203,0.0001718,53.2175,11.6617,47.3554,81.7043,-0.042785,-0.00721795,0.0,0 STARLINK-3935,1 52549U 22051S   22192.58334491 -.00721795  00000-0 -42785-1 0  9998,2 52549  53.2175  11.6617 0001718  47.3554  81.7043 15.13513203  1308,6903.6330000000025,95.143,526.684,524.312,0.0
52549.0,STARLINK-3935,PAYLOAD,2022-07-11 22:00:00,15.13000701,0.0001624,53.2175,10.1574,52.9683,92.9922,-0.043136,-0.00717573,0.0,0 STARLINK-3935,1 52549U 22051S   22192.91667824 -.00717573  00000-0 -43136-1 0  9994,2 52549  53.2175  10.1574 0001624  52.9683  92.9922 15.13000701  9701,6905.191999999999,95.175,528.178,525.936,0.0
52549.0,STARLINK-3935,PAYLOAD,2022-07-12 14:00:01,15.11982902,0.0001784,53.2175,7.1474,47.0785,130.845,-0.044621,-0.0072113,0.0,0 STARLINK-3935,1 52549U 22051S   22193.58334491 -.00721130  00000-0 -44621-1 0  9993,2 52549  53.2175   7.1474 0001784  47.0785 130.8450 15.11982902  1307,6908.29,95.239,531.388,528.923,0.0
52549.0,STARLINK-3935,PAYLOAD,2022-07-12 22:00:00,15.11469776,0.0001657,53.2174,5.6464,52.7931,140.1929,-0.044887,-0.0071549,0.0,0 STARLINK-3935,1 52549U 22051S   22193.91667824 -.00715490  00000-0 -44887-1 0  9995,2 52549  53.2174   5.6464 0001657  52.7931 140.1929 15.11469776  1307,6909.854,95.272,532.864,530.5740000000002,0.0
52549.0,STARLINK-3935,PAYLOAD,2022-07-13 14:00:01,15.10452712,0.000174,53.2175,2.6436,48.8898,172.3822,-0.046524,-0.00720524,0.0,0 STARLINK-3935,1 52549U 22051S   22194.58334491 -.00720524  00000-0 -46524-1 0  9994,2 52549  53.2175   2.6436 0001740  48.8898 172.3822 15.10452712  1305,6912.955,95.336,536.023,533.618,0.0
52549.0,STARLINK-3935,PAYLOAD,2022-07-13 22:00:00,15.09940178,0.0001508,53.2173,1.146,61.7026,172.7934,-0.046845,-0.00715591,0.0,0 STARLINK-3935,1 52549U 22051S   22194.91667824 -.00715591  00000-0 -46845-1 0  9994,2 52549  53.2173   1.1460 0001508  61.7026 172.7934 15.09940178 10015,6914.52,95.368,537.427,535.342,0.0
52549.0,STARLINK-3935,PAYLOAD,2022-07-14 14:00:01,15.0892697,0.0001656,53.2175,358.1498,50.5371,208.5916,-0.0089352,-0.00140074,0.0,0 STARLINK-3935,1 52549U 22051S   22195.58334491 -.00140074  00000-0 -89352-2 0  9998,2 52549  53.2175 358.1498 0001656  50.5371 208.5916 15.08926970 10118,6917.615,95.432,540.625,538.3340000000002,0.0
52549.0,STARLINK-3935,PAYLOAD,2022-07-14 22:00:00,15.0892945,0.0001767,53.2168,356.6529,55.7912,214.8395,-0.00034548,-5.796e-05,0.0,0 STARLINK-3935,1 52549U 22051S   22195.91667824 -.00005796  00000-0 -34548-3 0  9993,2 52549  53.2168 356.6529 0001767  55.7912 214.8395 15.08929450  1307,6917.607,95.432,540.694,538.25,0.0
52549.0,STARLINK-3935,PAYLOAD,2022-07-15 06:00:00,15.08832278,0.0001838,53.2167,355.1495,57.1711,225.0945,0.0023705,0.00037633,0.0,0 STARLINK-3935,1 52549U 22051S   22196.25001157  .00037633  00000-0  23705-2 0  9997,2 52549  53.2167 355.1495 0001838  57.1711 225.0945 15.08832278 10210,6917.904,95.438,541.0409999999998,538.497,0.0
52549.0,STARLINK-3935,PAYLOAD,2022-07-15 14:00:01,15.08878745,0.0001853,53.2168,353.6538,57.0639,236.7994,-0.001701,-0.00027287,0.0,0 STARLINK-3935,1 52549U 22051S   22196.58334491 -.00027287  00000-0 -17010-2 0  9991,2 52549  53.2168 353.6538 0001853  57.0639 236.7994 15.08878745  1309,6917.762,95.435,540.909,538.345,0.0
52549.0,STARLINK-3935,PAYLOAD,2022-07-15 22:00:00,15.08845734,0.0001885,53.2165,352.1584,49.9496,255.5534,0.00068734,0.0001067,0.0,0 STARLINK-3935,1 52549U 22051S   22196.91667824  .00010670  00000-0  68734-3 0  9993,2 52549  53.2165 352.1584 0001885  49.9496 255.5534 15.08845734 10319,6917.863,95.437,541.0319999999998,538.424,0.0
52549.0,STARLINK-3935,PAYLOAD,2022-07-16 14:00:01,15.08876727,0.000166,53.2168,349.1649,53.1851,275.5284,-0.0040652,-0.00064472,0.0,0 STARLINK-3935,1 52549U 22051S   22197.58334491 -.00064472  00000-0 -40652-2 0  9997,2 52549  53.2168 349.1649 0001660  53.1851 275.5284 15.08876727  1302,6917.768,95.435,540.781,538.485,0.0
52549.0,STARLINK-3935,PAYLOAD,2022-07-16 22:00:00,15.08830262,0.0001718,53.2163,347.6693,46.0335,294.2983,0.0025656,0.00040769,0.0,0 STARLINK-3935,1 52549U 22051S   22197.91667824  .00040769  00000-0  25656-2 0  9991,2 52549  53.2163 347.6693 0001718  46.0335 294.2983 15.08830262 10466,6917.91,95.438,540.964,538.587,0.0
52549.0,STARLINK-3935,PAYLOAD,2022-07-17 14:00:01,15.08873815,0.0001671,53.2163,344.676,52.8828,310.6504,-0.0039701,-0.00062979,0.0,0 STARLINK-3935,1 52549U 22051S   22198.58334491 -.00062979  00000-0 -39701-2 0  9991,2 52549  53.2163 344.6760 0001671  52.8828 310.6504 15.08873815 10562,6917.776999999999,95.435,540.798,538.486,0.0
